NORAD_CAT_ID,OBJECT_NAME,OBJECT_TYPE,EPOCH,MEAN_MOTION,ECCENTRICITY,INCLINATION,RA_OF_ASC_NODE,ARG_OF_PERICENTER,MEAN_ANOMALY,BSTAR,MEAN_MOTION_DOT,MEAN_MOTION_DDOT,TLE_LINE0,TLE_LINE1,TLE_LINE2,SEMIMAJOR_AXIS,PERIOD,APOGEE,PERIGEE,DECAYED
52833.0,STARLINK-4086,PAYLOAD,2024-04-22 07:44:36,15.08845329,0.0001686,53.2169,235.3436,119.3583,240.7578,0.00035548,5.375e-05,0.0,0 STARLINK-4086,1 52833U 22062D   24113.32264949  .00005375  00000-0  35548-3 0  9991,2 52833  53.2169 235.3436 0001686 119.3583 240.7578 15.08845329102164,6917.864,95.437,540.895,538.563,0.0
52833.0,STARLINK-4086,PAYLOAD,2024-04-22 15:41:33,15.08811476,0.0001277,53.2172,233.8519,80.0605,280.0531,-0.00031704,-5.326e-05,0.0,0 STARLINK-4086,1 52833U 22062D   24113.65386390 -.00005326  00000-0 -31704-3 0  9990,2 52833  53.2172 233.8519 0001277  80.0605 280.0531 15.08811476102216,6917.968,95.439,540.716,538.949,0.0
52833.0,STARLINK-4086,PAYLOAD,2024-04-23 12:21:34,15.08844166,0.0001662,53.2158,229.9959,52.725,307.3893,0.00051266,7.881e-05,0.0,0 STARLINK-4086,1 52833U 22062D   24114.51498413  .00007881  00000-0  51266-3 0  9997,2 52833  53.2158 229.9959 0001662  52.7250 307.3893 15.08844166102344,6917.868,95.437,540.882,538.583,0.0
52833.0,STARLINK-4086,PAYLOAD,2024-04-23 13:56:57,15.08858563,0.0001431,53.2175,229.6931,74.5772,285.5378,0.0011389,0.00017893,0.0,0 STARLINK-4086,1 52833U 22062D   24114.58122277  .00017893  00000-0  11389-2 0  9991,2 52833  53.2175 229.6931 0001431  74.5772 285.5378 15.08858563102357,6917.824,95.436,540.679,538.699,0.0
52833.0,STARLINK-4086,PAYLOAD,2024-04-24 12:12:20,15.08855954,0.0001819,53.2165,225.5252,146.5657,213.545,0.00033223,5.006e-05,0.0,0 STARLINK-4086,1 52833U 22062D   24115.50857085  .00005006  00000-0  33223-3 0  9991,2 52833  53.2165 225.5252 0001819 146.5657 213.5450 15.08855954102497,6917.832,95.437,540.955,538.438,0.0
52833.0,STARLINK-4086,PAYLOAD,2024-04-24 13:47:43,15.08854824,0.0001366,53.2169,225.2281,145.7461,214.3619,0.00027813,4.143e-05,0.0,0 STARLINK-4086,1 52833U 22062D   24115.57481118  .00004143  00000-0  27813-3 0  9997,2 52833  53.2169 225.2281 0001366 145.7461 214.3619 15.08854824102504,6917.835,95.437,540.645,538.755,0.0
52833.0,STARLINK-4086,PAYLOAD,2024-04-25 13:38:31,15.08851651,9.48e-05,53.2164,220.7664,99.3183,260.7917,-0.00017604,-3.089e-05,0.0,0 STARLINK-4086,1 52833U 22062D   24116.56841686 -.00003089  00000-0 -17604-3 0  9994,2 52833  53.2164 220.7664 0000948  99.3183 260.7917 15.08851651102651,6917.845,95.437,540.366,539.054,0.0
52833.0,STARLINK-4086,PAYLOAD,2024-04-26 13:29:18,15.08832772,0.0001118,53.2164,216.3088,69.034,291.0772,6.5222e-05,7.5e-06,0.0,0 STARLINK-4086,1 52833U 22062D   24117.56202221  .00000750  00000-0  65222-4 0  9991,2 52833  53.2164 216.3088 0001118  69.0340 291.0772 15.08832772102807,6917.902,95.438,540.541,538.994,0.0
52833.0,STARLINK-4086,PAYLOAD,2024-04-27 13:20:05,15.0883494,0.000116,53.2172,211.8505,92.2078,267.9047,8.9043e-05,1.129e-05,0.0,0 STARLINK-4086,1 52833U 22062D   24118.55562140  .00001129  00000-0  89043-4 0  9998,2 52833  53.2172 211.8505 0001160  92.2078 267.9047 15.08834940102955,6917.896,95.438,540.563,538.958,0.0
52833.0,STARLINK-4086,PAYLOAD,2024-04-27 22:52:23,15.08849977,0.0001248,53.2188,210.0638,81.8356,278.2778,0.00017825,2.551e-05,0.0,0 STARLINK-4086,1 52833U 22062D   24118.95304862  .00002551  00000-0  17825-3 0  9995,2 52833  53.2188 210.0638 0001248  81.8356 278.2778 15.08849977103010,6917.85,95.437,540.578,538.852,0.0
52833.0,STARLINK-4086,PAYLOAD,2024-04-28 13:10:53,15.08824762,0.0001295,53.2188,207.3931,87.8868,272.2272,-2.6558e-06,-3.3e-06,0.0,0 STARLINK-4086,1 52833U 22062D   24119.54923487 -.00000330  00000-0 -26558-5 0  9991,2 52833  53.2188 207.3931 0001295  87.8868 272.2272 15.08824762103109,6917.927,95.439,540.688,538.896,0.0
52833.0,STARLINK-4086,PAYLOAD,2024-04-28 16:21:39,15.08831052,0.0001136,53.2156,206.7931,66.999,293.1122,4.0007e-05,3.49e-06,0.0,0 STARLINK-4086,1 52833U 22062D   24119.68171047  .00000349  00000-0  40007-4 0  9995,2 52833  53.2156 206.7931 0001136  66.9990 293.1122 15.08831052103123,6917.908,95.438,540.559,538.987,0.0
52833.0,STARLINK-4086,PAYLOAD,2024-04-29 13:01:40,15.08833481,0.0001304,53.2156,202.9276,89.3069,270.8073,6.2521e-05,7.07e-06,0.0,0 STARLINK-4086,1 52833U 22062D   24120.54283072  .00000707  00000-0  62521-4 0  9997,2 52833  53.2156 202.9276 0001304  89.3069 270.8073 15.08833481103255,6917.9,95.438,540.667,538.863,0.0
52833.0,STARLINK-4086,PAYLOAD,2024-04-29 22:33:58,15.08854133,0.0001159,53.2166,201.1442,84.2228,275.8896,0.00012009,1.625e-05,0.0,0 STARLINK-4086,1 52833U 22062D   24120.94025480  .00001625  00000-0  12009-3 0  9993,2 52833  53.2166 201.1442 0001159  84.2228 275.8896 15.08854133103313,6917.837,95.437,540.504,538.9,0.0
52833.0,STARLINK-4086,PAYLOAD,2024-04-30 04:55:31,15.08832399,0.0001675,53.2185,199.9598,81.793,278.3252,0.00023423,3.441e-05,0.0,0 STARLINK-4086,1 52833U 22062D   24121.20522740  .00003441  00000-0  23423-3 0  9994,2 52833  53.2185 199.9598 0001675  81.7930 278.3252 15.08832399103353,6917.904,95.438,540.927,538.61,0.0
52833.0,STARLINK-4086,PAYLOAD,2024-04-30 12:52:27,15.08837102,0.0001236,53.2161,198.4682,78.8129,281.3002,0.00014579,2.033e-05,0.0,0 STARLINK-4086,1 52833U 22062D   24121.53642708  .00002033  00000-0  14579-3 0  9995,2 52833  53.2161 198.4682 0001236  78.8129 281.3002 15.08837102103405,6917.889,95.438,540.609,538.899,0.0
52833.0,STARLINK-4086,PAYLOAD,2024-04-30 22:24:45,15.08846985,0.0001271,53.2167,196.685,81.8715,278.2422,0.00014819,2.072e-05,0.0,0 STARLINK-4086,1 52833U 22062D   24121.93386011  .00002072  00000-0  14819-3 0  9991,2 52833  53.2167 196.6850 0001271  81.8715 278.2422 15.08846985103468,6917.859,95.437,540.603,538.845,0.0
52833.0,STARLINK-4086,PAYLOAD,2024-05-01 11:07:50,15.08852707,0.0001191,53.2168,194.3072,97.4586,262.6542,1.6063e-05,-3.2e-07,0.0,0 STARLINK-4086,1 52833U 22062D   24122.46377873 -.00000032  00000-0  16063-4 0  9995,2 52833  53.2168 194.3072 0001191  97.4586 262.6542 15.08852707103548,6917.842,95.437,540.53,538.883,0.0
52833.0,STARLINK-4086,PAYLOAD,2024-05-01 22:15:31,15.08858091,0.0001229,53.2169,192.226,97.2088,262.9044,5.4186e-05,5.75e-06,0.0,0 STARLINK-4086,1 52833U 22062D   24122.92744965  .00000575  00000-0  54186-4 0  9995,2 52833  53.2169 192.2260 0001229  97.2088 262.9044 15.08858091103612,6917.825,95.436,540.54,538.84,0.0
52833.0,STARLINK-4086,PAYLOAD,2024-05-02 10:58:38,15.08833793,0.0001398,53.2165,189.8464,91.4671,268.6482,1.6195e-05,-3e-07,0.0,0 STARLINK-4086,1 52833U 22062D   24123.45738657 -.00000030  00000-0  16195-4 0  9990,2 52833  53.2165 189.8464 0001398  91.4671 268.6482 15.08833793103696,6917.899,95.438,540.731,538.797,0.0
52833.0,STARLINK-4086,PAYLOAD,2024-05-02 14:09:24,15.0883838,0.0001408,53.2169,189.2504,94.4084,265.7069,-2.8737e-05,-7.45e-06,0.0,0 STARLINK-4086,1 52833U 22062D   24123.58986444 -.00000745  00000-0 -28737-4 0  9992,2 52833  53.2169 189.2504 0001408  94.4084 265.7069 15.08838380103711,6917.885,95.438,540.724,538.776,0.0
52833.0,STARLINK-4086,PAYLOAD,2024-05-03 04:27:51,15.08852495,0.0001993,53.2169,186.5747,90.4031,269.7189,-3.213e-05,-8e-06,0.0,0 STARLINK-4086,1 52833U 22062D   24124.18601532 -.00000800  00000-0 -32130-4 0  9995,2 52833  53.2169 186.5747 0001993  90.4031 269.7189 15.08852495103807,6917.842,95.437,541.086,538.328,0.0
52833.0,STARLINK-4086,PAYLOAD,2024-05-03 10:49:23,15.08851588,0.0001288,53.2165,185.3851,94.6948,265.4191,0.00012887,1.764e-05,0.0,0 STARLINK-4086,1 52833U 22062D   24124.45097023  .00001764  00000-0  12887-3 0  9993,2 52833  53.2165 185.3851 0001288  94.6948 265.4191 15.08851588103848,6917.845,95.437,540.601,538.819,0.0
52833.0,STARLINK-4086,PAYLOAD,2024-05-04 04:18:39,15.0883545,0.0001502,53.216,182.1142,97.5439,262.5724,0.00010404,1.368e-05,0.0,0 STARLINK-4086,1 52833U 22062D   24125.17962005  .00001368  00000-0  10404-3 0  9997,2 52833  53.2160 182.1142 0001502  97.5439 262.5724 15.08835450103959,6917.894,95.438,540.798,538.72,0.0
52833.0,STARLINK-4086,PAYLOAD,2024-05-04 10:40:12,15.0882432,0.0001308,53.2157,180.925,83.6129,276.5012,-4.5818e-05,-1.017e-05,0.0,0 STARLINK-4086,1 52833U 22062D   24125.44458795 -.00001017  00000-0 -45818-4 0  9994,2 52833  53.2157 180.9250 0001308  83.6129 276.5012 15.08824320103990,6917.928,95.439,540.698,538.888,0.0
52833.0,STARLINK-4086,PAYLOAD,2024-05-05 04:09:26,15.08830039,0.0001295,53.2158,177.652,74.0447,286.0687,-8.3876e-05,-1.622e-05,0.0,0 STARLINK-4086,1 52833U 22062D   24126.17322836 -.00001622  00000-0 -83876-4 0  9999,2 52833  53.2158 177.6520 0001295  74.0447 286.0687 15.08830039104108,6917.911,95.438,540.672,538.88,0.0
52833.0,STARLINK-4086,PAYLOAD,2024-05-05 10:30:59,15.08836422,0.0001366,53.2155,176.4646,79.833,280.2816,0.00012805,1.75e-05,0.0,0 STARLINK-4086,1 52833U 22062D   24126.43818797  .00001750  00000-0  12805-3 0  9997,2 52833  53.2155 176.4646 0001366  79.8330 280.2816 15.08836422104140,6917.891,95.438,540.701,538.811,0.0
52833.0,STARLINK-4086,PAYLOAD,2024-05-06 10:21:46,15.08858551,0.0001387,53.215,172.0042,76.8828,283.2319,0.00073485,0.00011432,0.0,0 STARLINK-4086,1 52833U 22062D   24127.43178589  .00011432  00000-0  73485-3 0  9995,2 52833  53.2150 172.0042 0001387  76.8828 283.2319 15.08858551104293,6917.824,95.436,540.648,538.729,0.0
52833.0,STARLINK-4086,PAYLOAD,2024-05-07 11:47:56,15.08845138,0.0001372,53.2147,167.2481,76.4014,283.7131,9.0926e-05,1.16e-05,0.0,0 STARLINK-4086,1 52833U 22062D   24128.49162427  .00001160  00000-0  90926-4 0  9993,2 52833  53.2147 167.2481 0001372  76.4014 283.7131 15.08845138104451,6917.865,95.437,540.679,538.781,0.0
52833.0,STARLINK-4086,PAYLOAD,2024-05-08 08:27:57,15.08839593,0.0001284,53.2148,163.3792,89.0209,271.0931,-5.1028e-05,-1.1e-05,0.0,0 STARLINK-4086,1 52833U 22062D   24129.35274653 -.00001100  00000-0 -51028-4 0  9990,2 52833  53.2148 163.3792 0001284  89.0209 271.0931 15.08839593104582,6917.882,95.438,540.635,538.858,0.0
